NORAD_CAT_ID,OBJECT_NAME,OBJECT_TYPE,EPOCH,MEAN_MOTION,ECCENTRICITY,INCLINATION,RA_OF_ASC_NODE,ARG_OF_PERICENTER,MEAN_ANOMALY,BSTAR,MEAN_MOTION_DOT,MEAN_MOTION_DDOT,TLE_LINE0,TLE_LINE1,TLE_LINE2,SEMIMAJOR_AXIS,PERIOD,APOGEE,PERIGEE,DECAYED
51859.0,STARLINK-3560,PAYLOAD,2023-10-06 06:59:06,15.08822241,0.00013,53.2188,23.8368,94.4399,265.6742,-0.00038013,-6.33e-05,0.0,0 STARLINK-3560,1 51859U 22022H   23279.29104756 -.00006330  00000-0 -38013-3 0  9995,2 51859  53.2188  23.8368 0001300  94.4399 265.6742 15.08822241 89494,6917.935,95.439,540.699,538.9,0.0
51859.0,STARLINK-3560,PAYLOAD,2023-10-06 13:20:38,15.08834133,0.0001613,53.2182,22.6474,93.6993,266.4184,-4.269e-05,-9.67e-06,0.0,0 STARLINK-3560,1 51859U 22022H   23279.55600565 -.00000967  00000-0 -42690-4 0  9990,2 51859  53.2182  22.6474 0001613  93.6993 266.4184 15.08834133 89538,6917.898,95.438,540.879,538.647,0.0
51859.0,STARLINK-3560,PAYLOAD,2023-10-07 13:11:25,15.08851071,0.0001787,53.2189,18.1885,93.1627,266.9569,0.00032197,4.841e-05,0.0,0 STARLINK-3560,1 51859U 22022H   23280.54960417  .00004841  00000-0  32197-3 0  9999,2 51859  53.2189  18.1885 0001787  93.1627 266.9569 15.08851071 89680,6917.847,95.437,540.948,538.475,0.0
51859.0,STARLINK-3560,PAYLOAD,2023-10-08 09:51:27,15.08845198,0.000178,53.2181,14.3222,94.2934,265.8262,0.00029829,4.463e-05,0.0,0 STARLINK-3560,1 51859U 22022H   23281.41072919  .00004463  00000-0  29829-3 0  9995,2 51859  53.2181  14.3222 0001780  94.2934 265.8262 15.08845198 89817,6917.865,95.437,540.961,538.498,0.0
51859.0,STARLINK-3560,PAYLOAD,2023-10-08 13:02:13,15.08850795,0.0001425,53.2184,13.7284,87.2344,272.8811,0.00041483,6.322e-05,0.0,0 STARLINK-3560,1 51859U 22022H   23281.54320773  .00006322  00000-0  41483-3 0  9999,2 51859  53.2184  13.7284 0001425  87.2344 272.8811 15.08850795 89833,6917.847,95.437,540.698,538.727,0.0
51859.0,STARLINK-3560,PAYLOAD,2023-10-08 17:48:22,15.08860973,0.0001642,53.2177,12.835,89.0982,271.0198,0.00059824,9.251e-05,0.0,0 STARLINK-3560,1 51859U 22022H   23281.74192339  .00009251  00000-0  59824-3 0  9998,2 51859  53.2177  12.8350 0001642  89.0982 271.0198 15.08860973 89869,6917.816,95.436,540.817,538.545,0.0
51859.0,STARLINK-3560,PAYLOAD,2023-10-09 06:31:27,15.08835986,0.0001234,53.2198,10.458,88.6803,271.433,4.7658e-05,4.71e-06,0.0,0 STARLINK-3560,1 51859U 22022H   23282.27184873  .00000471  00000-0  47658-4 0  9999,2 51859  53.2198  10.4580 0001234  88.6803 271.4330 15.08835986 89942,6917.893,95.438,540.611,538.904,0.0
51859.0,STARLINK-3560,PAYLOAD,2023-10-09 12:52:59,15.08855668,0.0001453,53.2191,9.2686,89.8525,270.2633,0.00072961,0.00011348,0.0,0 STARLINK-3560,1 51859U 22022H   23282.53680425  .00011348  00000-0  72961-3 0  9991,2 51859  53.2191   9.2686 0001453  89.8525 270.2633 15.08855668 89981,6917.832,95.437,540.703,538.692,0.0
51859.0,STARLINK-3560,PAYLOAD,2023-10-10 11:08:23,15.08859447,0.0001367,53.2193,5.1035,103.2642,256.8503,0.0012367,0.00019459,0.0,0 STARLINK-3560,1 51859U 22022H   23283.46416327  .00019459  00000-0  12367-2 0  9996,2 51859  53.2193   5.1035 0001367 103.2642 256.8503 15.08859447 90124,6917.821,95.436,540.632,538.74,0.0
51859.0,STARLINK-3560,PAYLOAD,2023-10-10 12:43:46,15.0885964,0.0001323,53.2192,4.8087,85.0039,275.1104,0.0010972,0.00017226,0.0,0 STARLINK-3560,1 51859U 22022H   23283.53040316  .00017226  00000-0  10972-2 0  9995,2 51859  53.2192   4.8087 0001323  85.0039 275.1104 15.08859640 90132,6917.82,95.436,540.601,538.77,0.0
51859.0,STARLINK-3560,PAYLOAD,2023-10-10 15:54:32,15.08873031,0.0001274,53.2192,4.2121,98.9309,261.1827,0.0013657,0.00021534,0.0,0 STARLINK-3560,1 51859U 22022H   23283.66287895  .00021534  00000-0  13657-2 0  9994,2 51859  53.2192   4.2121 0001274  98.9309 261.1827 15.08873031 90152,6917.779,95.435,540.526,538.763,0.0
51859.0,STARLINK-3560,PAYLOAD,2023-10-11 10:59:11,15.0883038,0.0001655,53.2185,0.6473,96.0952,264.0228,0.0006421,9.943e-05,0.0,0 STARLINK-3560,1 51859U 22022H   23284.45776977  .00009943  00000-0  64210-3 0  9998,2 51859  53.2185   0.6473 0001655  96.0952 264.0228 15.08830380 90270,6917.91,95.438,540.92,538.63,0.0
51859.0,STARLINK-3560,PAYLOAD,2023-10-11 12:34:34,15.08833074,0.0001659,53.2185,0.3495,98.5034,261.6147,0.00048065,7.368e-05,0.0,0 STARLINK-3560,1 51859U 22022H   23284.52400982  .00007368  00000-0  48065-3 0  9995,2 51859  53.2185   0.3495 0001659  98.5034 261.6147 15.08833074 90280,6917.902,95.438,540.914,538.619,0.0
51859.0,STARLINK-3560,PAYLOAD,2023-10-12 12:25:21,15.08851157,0.0001733,53.2187,355.8881,89.5001,270.619,0.00080836,0.00012604,0.0,0 STARLINK-3560,1 51859U 22022H   23285.51761127  .00012604  00000-0  80836-3 0  9997,2 51859  53.2187 355.8881 0001733  89.5001 270.6190 15.08851157 90433,6917.846,95.437,540.91,538.512,0.0
51859.0,STARLINK-3560,PAYLOAD,2023-10-12 23:33:03,15.08840486,0.0002065,53.2196,353.7999,144.6034,215.5095,7.3897e-05,8.88e-06,0.0,0 STARLINK-3560,1 51859U 22022H   23285.98128802  .00000888  00000-0  73897-4 0  9996,2 51859  53.2196 353.7999 0002065 144.6034 215.5095 15.08840486 90501,6917.879,95.438,541.172,538.315,0.0
51859.0,STARLINK-3560,PAYLOAD,2023-10-13 12:16:09,15.08841197,0.0001694,53.2176,351.4281,80.6999,279.4185,0.00023291,3.421e-05,0.0,0 STARLINK-3560,1 51859U 22022H   23286.51121599  .00003421  00000-0  23291-3 0  9990,2 51859  53.2176 351.4281 0001694  80.6999 279.4185 15.08841197 90581,6917.877,95.437,540.914,538.57,0.0
51859.0,STARLINK-3560,PAYLOAD,2023-10-13 21:48:27,15.08848975,0.0001696,53.2175,349.6438,79.802,280.3163,0.00034737,5.246e-05,0.0,0 STARLINK-3560,1 51859U 22022H   23286.90865358  .00005246  00000-0  34737-3 0  9995,2 51859  53.2175 349.6438 0001696  79.8020 280.3163 15.08848975 90645,6917.853,95.437,540.891,538.545,0.0
51859.0,STARLINK-3560,PAYLOAD,2023-10-14 04:10:00,15.08849772,0.0001809,53.2172,348.4554,78.2268,281.8927,0.00037345,5.662e-05,0.0,0 STARLINK-3560,1 51859U 22022H   23287.17361342  .00005662  00000-0  37345-3 0  9999,2 51859  53.2172 348.4554 0001809  78.2268 281.8927 15.08849772 90685,6917.851,95.437,540.967,538.464,0.0
51859.0,STARLINK-3560,PAYLOAD,2023-10-14 10:31:32,15.08854931,0.0001834,53.2171,347.266,75.3004,284.8191,0.00061672,9.545e-05,0.0,0 STARLINK-3560,1 51859U 22022H   23287.43857199  .00009545  00000-0  61672-3 0  9992,2 51859  53.2171 347.2660 0001834  75.3004 284.8191 15.08854931 90727,6917.835,95.437,540.968,538.431,0.0
51859.0,STARLINK-3560,PAYLOAD,2023-10-14 21:39:14,15.08846193,0.0002128,53.2171,345.1868,69.2487,290.8733,0.00023637,3.476e-05,0.0,0 STARLINK-3560,1 51859U 22022H   23287.90225340  .00003476  00000-0  23637-3 0  9997,2 51859  53.2171 345.1868 0002128  69.2487 290.8733 15.08846193 90795,6917.861,95.437,541.199,538.254,0.0
51859.0,STARLINK-3560,PAYLOAD,2023-10-15 10:22:20,15.08827832,0.0001707,53.218,342.8038,94.9704,265.1483,-0.00015849,-2.809e-05,0.0,0 STARLINK-3560,1 51859U 22022H   23288.43218015 -.00002809  00000-0 -15849-3 0  9994,2 51859  53.2180 342.8038 0001707  94.9704 265.1483 15.08827832 90872,6917.918,95.438,540.963,538.602,0.0
51859.0,STARLINK-3560,PAYLOAD,2023-10-15 13:33:06,15.08828442,0.0001893,53.2184,342.2081,100.0022,260.1184,-0.00012837,-2.33e-05,0.0,0 STARLINK-3560,1 51859U 22022H   23288.56466085 -.00002330  00000-0 -12837-3 0  9993,2 51859  53.2184 342.2081 0001893 100.0022 260.1184 15.08828442 90899,6917.916,95.438,541.09,538.471,0.0
51859.0,STARLINK-3560,PAYLOAD,2023-10-16 08:37:44,15.08846206,0.0001804,53.217,338.6416,94.8384,265.2814,0.00078858,0.00012287,0.0,0 STARLINK-3560,1 51859U 22022H   23289.35954305  .00012287  00000-0  78858-3 0  9993,2 51859  53.2170 338.6416 0001804  94.8384 265.2814 15.08846206 91017,6917.861,95.437,540.974,538.478,0.0
51859.0,STARLINK-3560,PAYLOAD,2023-10-16 10:13:07,15.08853578,0.0001773,53.218,338.3451,92.1839,267.9356,0.0010668,0.00016737,0.0,0 STARLINK-3560,1 51859U 22022H   23289.42578242  .00016737  00000-0  10668-2 0  9991,2 51859  53.2180 338.3451 0001773  92.1839 267.9356 15.08853578 91026,6917.839,95.437,540.93,538.477,0.0
51859.0,STARLINK-3560,PAYLOAD,2023-10-17 10:03:54,15.08846615,0.0001586,53.2174,333.8836,92.1963,267.9211,0.00038459,5.839e-05,0.0,0 STARLINK-3560,1 51859U 22022H   23290.41938255  .00005839  00000-0  38459-3 0  9996,2 51859  53.2174 333.8836 0001586  92.1963 267.9211 15.08846615 91176,6917.86,95.437,540.822,538.628,0.0
51859.0,STARLINK-3560,PAYLOAD,2023-10-17 22:46:59,15.08847368,0.0001716,53.2181,331.5074,96.9514,263.1674,0.00026502,3.933e-05,0.0,0 STARLINK-3560,1 51859U 22022H   23290.94930054  .00003933  00000-0  26502-3 0  9992,2 51859  53.2181 331.5074 0001716  96.9514 263.1674 15.08847368 91258,6917.858,95.437,540.91,538.536,0.0
51859.0,STARLINK-3560,PAYLOAD,2023-10-18 09:54:41,15.08841018,0.0001667,53.2178,329.4251,96.995,263.1232,0.00013889,1.923e-05,0.0,0 STARLINK-3560,1 51859U 22022H   23291.41298183  .00001923  00000-0  13889-3 0  9996,2 51859  53.2178 329.4251 0001667  96.9950 263.1232 15.08841018 91320,6917.877,95.437,540.895,538.589,0.0
51859.0,STARLINK-3560,PAYLOAD,2023-10-18 13:05:27,15.08847249,0.0001739,53.2175,328.8287,94.1796,265.9395,0.00022691,3.326e-05,0.0,0 STARLINK-3560,1 51859U 22022H   23291.54545990  .00003326  00000-0  22691-3 0  9991,2 51859  53.2175 328.8287 0001739  94.1796 265.9395 15.08847249 91341,6917.858,95.437,540.926,538.52,0.0
51859.0,STARLINK-3560,PAYLOAD,2023-10-19 11:20:51,15.08858889,0.0001715,53.2171,324.6651,102.197,257.9214,0.00050543,7.769e-05,0.0,0 STARLINK-3560,1 51859U 22022H   23292.47281523  .00007769  00000-0  50543-3 0  9995,2 51859  53.2171 324.6651 0001715 102.1970 257.9214 15.08858889 91482,6917.823,95.436,540.874,538.501,0.0
51859.0,STARLINK-3560,PAYLOAD,2023-10-19 19:17:47,15.08843022,0.0001995,53.2176,323.1804,81.6801,278.4417,0.00017503,2.499e-05,0.0,0 STARLINK-3560,1 51859U 22022H   23292.80402130  .00002499  00000-0  17503-3 0  9995,2 51859  53.2176 323.1804 0001995  81.6801 278.4417 15.08843022 91537,6917.871,95.437,541.116,538.356,0.0
